CCSDS_OMM_VERS = 2.0
CREATION_DATE  = 
ORIGINATOR     = 

OBJECT_NAME    = SL-3 R/B
OBJECT_ID      = 1982-079B
CENTER_NAME    = EARTH
REF_FRAME      = TEME
TIME_SYSTEM    = UTC
MEAN_ELEMENT_THEORY = SGP/SGP4

EPOCH          = 2026-03-04T03:42:17.129088
MEAN_MOTION    = 15.24699282
ECCENTRICITY   = .0024824
INCLINATION    = 81.1474
RA_OF_ASC_NODE = 199.6116
ARG_OF_PERICENTER = 183.4819
MEAN_ANOMALY   = 176.6246

EPHEMERIS_TYPE = 0
CLASSIFICATION_TYPE = U
NORAD_CAT_ID   = 13403
ELEMENT_SET_NO = 999
REV_AT_EPOCH   = 37685
BSTAR          = .40341E-3
MEAN_MOTION_DOT = .10091E-3
MEAN_MOTION_DDOT = 0

CCSDS_OMM_VERS = 2.0
CREATION_DATE  = 
ORIGINATOR     = 

OBJECT_NAME    = SL-14 R/B
OBJECT_ID      = 1982-092B
CENTER_NAME    = EARTH
REF_FRAME      = TEME
TIME_SYSTEM    = UTC
MEAN_ELEMENT_THEORY = SGP/SGP4

EPOCH          = 2026-03-04T04:27:00.173088
MEAN_MOTION    = 14.86660176
ECCENTRICITY   = .001935
INCLINATION    = 82.5702
RA_OF_ASC_NODE = 146.5472
ARG_OF_PERICENTER = 322.9535
MEAN_ANOMALY   = 64.5151

EPHEMERIS_TYPE = 0
CLASSIFICATION_TYPE = U
NORAD_CAT_ID   = 13553
ELEMENT_SET_NO = 999
REV_AT_EPOCH   = 32811
BSTAR          = .75168E-4
MEAN_MOTION_DOT = .694E-5
MEAN_MOTION_DDOT = 0

CCSDS_OMM_VERS = 2.0
CREATION_DATE  = 
ORIGINATOR     = 

OBJECT_NAME    = SL-3 R/B
OBJECT_ID      = 1983-010B
CENTER_NAME    = EARTH
REF_FRAME      = TEME
TIME_SYSTEM    = UTC
MEAN_ELEMENT_THEORY = SGP/SGP4

EPOCH          = 2026-03-03T06:56:56.264640
MEAN_MOTION    = 15.46076306
ECCENTRICITY   = .00184672
INCLINATION    = 81.1059
RA_OF_ASC_NODE = 10.0905
ARG_OF_PERICENTER = 71.2910
MEAN_ANOMALY   = 289.0337

EPHEMERIS_TYPE = 0
CLASSIFICATION_TYPE = U
NORAD_CAT_ID   = 13819
ELEMENT_SET_NO = 999
REV_AT_EPOCH   = 35695
BSTAR          = .39033017E-3
MEAN_MOTION_DOT = .19262E-3
MEAN_MOTION_DDOT = 0

CCSDS_OMM_VERS = 2.0
CREATION_DATE  = 
ORIGINATOR     = 

OBJECT_NAME    = SL-3 R/B
OBJECT_ID      = 1983-075B
CENTER_NAME    = EARTH
REF_FRAME      = TEME
TIME_SYSTEM    = UTC
MEAN_ELEMENT_THEORY = SGP/SGP4

EPOCH          = 2026-03-04T03:47:37.877856
MEAN_MOTION    = 15.38256074
ECCENTRICITY   = .001975
INCLINATION    = 97.6133
RA_OF_ASC_NODE = 67.5262
ARG_OF_PERICENTER = 247.5377
MEAN_ANOMALY   = 112.3776

EPHEMERIS_TYPE = 0
CLASSIFICATION_TYPE = U
NORAD_CAT_ID   = 14208
ELEMENT_SET_NO = 999
REV_AT_EPOCH   = 32930
BSTAR          = .43021E-3
MEAN_MOTION_DOT = .16249E-3
MEAN_MOTION_DDOT = 0

CCSDS_OMM_VERS = 2.0
CREATION_DATE  = 
ORIGINATOR     = 

OBJECT_NAME    = COSMOS 1536
OBJECT_ID      = 1984-013A
CENTER_NAME    = EARTH
REF_FRAME      = TEME
TIME_SYSTEM    = UTC
MEAN_ELEMENT_THEORY = SGP/SGP4

EPOCH          = 2026-03-04T03:18:54.025056
MEAN_MOTION    = 15.23740059
ECCENTRICITY   = .001278
INCLINATION    = 82.5437
RA_OF_ASC_NODE = 113.3693
ARG_OF_PERICENTER = 305.1406
MEAN_ANOMALY   = 54.8633

EPHEMERIS_TYPE = 0
CLASSIFICATION_TYPE = U
NORAD_CAT_ID   = 14699
ELEMENT_SET_NO = 999
REV_AT_EPOCH   = 27177
BSTAR          = .37218E-3
MEAN_MOTION_DOT = .8996E-4
MEAN_MOTION_DDOT = 0

CCSDS_OMM_VERS = 2.0
CREATION_DATE  = 
ORIGINATOR     = 

OBJECT_NAME    = SL-14 R/B
OBJECT_ID      = 1984-027B
CENTER_NAME    = EARTH
REF_FRAME      = TEME
TIME_SYSTEM    = UTC
MEAN_ELEMENT_THEORY = SGP/SGP4

EPOCH          = 2026-03-03T13:34:13.162368
MEAN_MOTION    = 14.85968921
ECCENTRICITY   = .0017893
INCLINATION    = 82.5381
RA_OF_ASC_NODE = 250.7582
ARG_OF_PERICENTER = 358.7280
MEAN_ANOMALY   = 1.3888

EPHEMERIS_TYPE = 0
CLASSIFICATION_TYPE = U
NORAD_CAT_ID   = 14820
ELEMENT_SET_NO = 999
REV_AT_EPOCH   = 24672
BSTAR          = .69372E-4
MEAN_MOTION_DOT = .631E-5
MEAN_MOTION_DDOT = 0

CCSDS_OMM_VERS = 2.0
CREATION_DATE  = 
ORIGINATOR     = 

OBJECT_NAME    = SL-8 R/B
OBJECT_ID      = 1985-006B
CENTER_NAME    = EARTH
REF_FRAME      = TEME
TIME_SYSTEM    = UTC
MEAN_ELEMENT_THEORY = SGP/SGP4

EPOCH          = 2026-03-04T00:57:24.158016
MEAN_MOTION    = 14.37778554
ECCENTRICITY   = .001868
INCLINATION    = 74.0434
RA_OF_ASC_NODE = 271.5456
ARG_OF_PERICENTER = 190.6418
MEAN_ANOMALY   = 322.8304

EPHEMERIS_TYPE = 0
CLASSIFICATION_TYPE = U
NORAD_CAT_ID   = 15483
ELEMENT_SET_NO = 999
REV_AT_EPOCH   = 15321
BSTAR          = .81763E-4
MEAN_MOTION_DOT = .22E-5
MEAN_MOTION_DDOT = 0

CCSDS_OMM_VERS = 2.0
CREATION_DATE  = 
ORIGINATOR     = 

OBJECT_NAME    = SL-12 R/B(2)
OBJECT_ID      = 1985-042D
CENTER_NAME    = EARTH
REF_FRAME      = TEME
TIME_SYSTEM    = UTC
MEAN_ELEMENT_THEORY = SGP/SGP4

EPOCH          = 2026-03-04T03:16:58.800288
MEAN_MOTION    = 14.21980782
ECCENTRICITY   = .0033494
INCLINATION    = 71.1064
RA_OF_ASC_NODE = 99.4615
ARG_OF_PERICENTER = 137.2401
MEAN_ANOMALY   = 283.5288

EPHEMERIS_TYPE = 0
CLASSIFICATION_TYPE = U
NORAD_CAT_ID   = 15772
ELEMENT_SET_NO = 999
REV_AT_EPOCH   = 11360
BSTAR          = .10053E-3
MEAN_MOTION_DOT = .176E-5
MEAN_MOTION_DDOT = 0

CCSDS_OMM_VERS = 2.0
CREATION_DATE  = 
ORIGINATOR     = 

OBJECT_NAME    = SL-14 R/B
OBJECT_ID      = 1985-069B
CENTER_NAME    = EARTH
REF_FRAME      = TEME
TIME_SYSTEM    = UTC
MEAN_ELEMENT_THEORY = SGP/SGP4

EPOCH          = 2026-03-03T19:42:43.462368
MEAN_MOTION    = 14.86424880
ECCENTRICITY   = .00179588
INCLINATION    = 82.5272
RA_OF_ASC_NODE = 30.4506
ARG_OF_PERICENTER = 207.6581
MEAN_ANOMALY   = 152.3682

EPHEMERIS_TYPE = 0
CLASSIFICATION_TYPE = U
NORAD_CAT_ID   = 15945
ELEMENT_SET_NO = 999
REV_AT_EPOCH   = 17196
BSTAR          = .78224122E-4
MEAN_MOTION_DOT = .716E-5
MEAN_MOTION_DDOT = 0

CCSDS_OMM_VERS = 2.0
CREATION_DATE  = 
ORIGINATOR     = 

OBJECT_NAME    = SL-16 R/B
OBJECT_ID      = 1985-097B
CENTER_NAME    = EARTH
REF_FRAME      = TEME
TIME_SYSTEM    = UTC
MEAN_ELEMENT_THEORY = SGP/SGP4

EPOCH          = 2026-03-03T17:05:06.504576
MEAN_MOTION    = 14.16599704
ECCENTRICITY   = .00099571
INCLINATION    = 71.0037
RA_OF_ASC_NODE = 153.1385
ARG_OF_PERICENTER = 266.8264
MEAN_ANOMALY   = 204.2668

EPHEMERIS_TYPE = 0
CLASSIFICATION_TYPE = U
NORAD_CAT_ID   = 16182
ELEMENT_SET_NO = 999
REV_AT_EPOCH   = 8638
BSTAR          = .19393807E-4
MEAN_MOTION_DOT = -.9E-7
MEAN_MOTION_DDOT = 0

CCSDS_OMM_VERS = 2.0
CREATION_DATE  = 
ORIGINATOR     = 

OBJECT_NAME    = SL-14 R/B
OBJECT_ID      = 1986-006B
CENTER_NAME    = EARTH
REF_FRAME      = TEME
TIME_SYSTEM    = UTC
MEAN_ELEMENT_THEORY = SGP/SGP4

EPOCH          = 2026-03-04T01:39:32.388768
MEAN_MOTION    = 14.86806497
ECCENTRICITY   = .0075179
INCLINATION    = 82.5234
RA_OF_ASC_NODE = 265.0285
ARG_OF_PERICENTER = 291.8180
MEAN_ANOMALY   = 67.5051

EPHEMERIS_TYPE = 0
CLASSIFICATION_TYPE = U
NORAD_CAT_ID   = 16496
ELEMENT_SET_NO = 999
REV_AT_EPOCH   = 14837
BSTAR          = .86044E-4
MEAN_MOTION_DOT = .832E-5
MEAN_MOTION_DDOT = 0

CCSDS_OMM_VERS = 2.0
CREATION_DATE  = 
ORIGINATOR     = 

OBJECT_NAME    = COSMOS 1743
OBJECT_ID      = 1986-034A
CENTER_NAME    = EARTH
REF_FRAME      = TEME
TIME_SYSTEM    = UTC
MEAN_ELEMENT_THEORY = SGP/SGP4

EPOCH          = 2026-03-04T02:52:18.862464
MEAN_MOTION    = 15.58087039
ECCENTRICITY   = .0002179
INCLINATION    = 82.5291
RA_OF_ASC_NODE = 79.6750
ARG_OF_PERICENTER = 332.2042
MEAN_ANOMALY   = 27.9096

EPHEMERIS_TYPE = 0
CLASSIFICATION_TYPE = U
NORAD_CAT_ID   = 16719
ELEMENT_SET_NO = 999
REV_AT_EPOCH   = 17938
BSTAR          = .58201E-3
MEAN_MOTION_DOT = .4392E-3
MEAN_MOTION_DDOT = 0

